AMC-11                  
1 28252U 04017A   24256.56973943 -.00000048  00000+0  00000+0 0  9997
2 28252   0.0423 318.0456 0002052 240.3647 247.6598  1.00271438 74426
INTELSAT 10-02          
1 28358U 04022A   24256.40743843 -.00000009  00000+0  00000+0 0  9994
2 28358   0.0228 242.8032 0000475 275.5399 339.2685  1.00270646 74112
ANIK F2                 
1 28378U 04027A   24256.56973927 -.00000048  00000+0  00000+0 0  9999
2 28378   1.6240  87.7388 0002422  45.1457 313.1876  1.00272321 34813
AMC-15                  
1 28446U 04041A   24256.57454907 -.00000087  00000+0  00000+0 0  9997
2 28446   0.0442 308.9990 0002428 227.0525 277.8047  1.00271455 72877
NSS-10                  
1 28526U 05003A   24256.23938420 -.00000248  00000+0  00000+0 0  9994
2 28526   4.8315  78.1518 0002828  89.6778 232.6461  1.00270496 46701
XTAR-EUR                
1 28542U 05005A   24256.17911406  .00000153  00000+0  00000+0 0  9996
2 28542   2.6670  84.7235 0003183  99.1456 261.3038  1.00273495 71745
XM-3 (RHYTHM)           
1 28626U 05008A   24256.32688352 -.00000203  00000+0  00000+0 0  9997
2 28626   0.0247 225.3113 0004368 352.2829 166.7563  1.00272596 36171
INMARSAT 4-F1           
1 28628U 05009A   24256.61261094  .00000036  00000+0  00000+0 0  9995
2 28628   4.3698  41.3870 0002234 157.4237 191.9441  1.00272579 71225
DIRECTV 8               
1 28659U 05019A   24256.56240063  .00000003  00000+0  00000+0 0  9991
2 28659   0.0170 203.1535 0002996 341.6426 250.6839  1.00271425 70621
GALAXY 28 (G-28)        
1 28702U 05022A   24256.35466358 -.00000183  00000+0  00000+0 0  9998
2 28702   1.6321  86.8944 0004508 149.0260 154.6079  1.00271017 45530
THAICOM 4               
1 28786U 05028A   24256.54431891 -.00000361  00000+0  00000+0 0  9999
2 28786   0.0178 161.3860 0002352  41.2443 104.8527  1.00272544 45803
GALAXY 14 (G-14)        
1 28790U 05030A   24256.21160406  .00000023  00000+0  00000+0 0  9996
2 28790   3.3485  82.7584 0001534 105.3887 257.3474  0.99691957 69866
ANIK F1R                
1 28868U 05036A   24256.57203955 -.00000073  00000+0  00000+0 0  9990
2 28868   2.6517  84.5398 0003069  57.0813 309.0950  1.00272024 40013
SYRACUSE 3A             
1 28885U 05041B   24256.24632628  .00000133  00000+0  00000+0 0  9998
2 28885   2.9923  83.8254 0002695 109.0143 293.8044  1.00275029 69302
INMARSAT 4-F2           
1 28899U 05044A   24256.48223024 -.00000257  00000+0  00000+0 0  9996
2 28899   4.2843  42.7616 0002154 147.3816 118.9522  1.00271087 69073
SPACEWAY 2              
1 28903U 05046B   24256.54407845  .00000104  00000+0  00000+0 0  9996
2 28903   3.8158  79.0094 0000852 345.9389 344.2097  1.00272982 44899
METEOSAT-9 (MSG-2)      
1 28912U 05049B   24256.05830816  .00000130  00000+0  00000+0 0  9992
2 28912   7.8795  60.1088 0001237 189.3837 168.8377  1.00267229   554
EUTELSAT 174A           
1 28924U 05052A   24256.61704118  .00000011  00000+0  00000+0 0  9994
2 28924   2.5771  84.4400 0006164  86.5230 217.2923  1.00271330 45888
ECHOSTAR 10             
1 28935U 06003A   24256.56973975 -.00000054  00000+0  00000+0 0  9994
2 28935   0.0432 300.4840 0002164 189.6215 316.8715  1.00270939 68020
SPAINSAT                
1 28945U 06007A   24256.10661570 -.00000213  00000+0  00000+0 0  9991
2 28945   0.0515 253.5365 0005544 300.0666 166.3969  1.00269458 67760
EUTELSAT HOTBIRD 13E    
1 28946U 06007B   24256.22944929  .00000088  00000+0  00000+0 0  9996
2 28946   0.4251  99.4591 0004999  72.2362 275.4298  1.00272596 67870
JCSAT-5A                
1 29045U 06010A   24256.55311196 -.00000327  00000+0  00000+0 0  9998
2 29045   0.0284 250.3055 0001955 335.0343  97.8752  1.00270415 67323
ASTRA 1KR               
1 29055U 06012A   24255.22930542  .00000125  00000+0  00000+0 0  9991
2 29055   0.0602 285.2696 0004711 274.0072 253.2173  1.00273945 39257
EWS-G1 (GOES 13)        
1 29155U 06018A   24255.76678875 -.00000028  00000+0  00000+0 0  9998
2 29155   2.8457  84.2303 0067584 256.3107 130.3919  0.98917289 36899
GALAXY 16 (G-16)        
1 29236U 06023A   24256.57910417 -.00000125  00000+0  00000+0 0  9993
2 29236   0.0423 246.7546 0002721 275.5467 299.2538  1.00270849 66523
EUTELSAT HOTBIRD 13B    
1 29270U 06032A   24256.35396472  .00000158  00000+0  00000+0 0  9991
2 29270   0.0117 271.2897 0004029 271.2244 329.8500  1.00272873 40869
JCSAT-3A                
1 29272U 06033A   24256.59146681 -.00000344  00000+0  00000+0 0  9993
2 29272   0.0316 264.2185 0002420 278.2829 150.5141  1.00271135 41291
SYRACUSE 3B             
1 29273U 06033B   24256.40743843 -.00000042  00000+0  00000+0 0  9992
2 29273   1.2411  88.3420 0003882  96.4886 308.5475  1.00271839 66264
KOREASAT 5 (MUGUNGWHA 5)
1 29349U 06034A   24256.59964943 -.00000357  00000+0  00000+0 0  9992
2 29349   0.1113  99.9650 0002043 110.4887 110.5623  1.00269591 34874
DIRECTV 9S              
1 29494U 06043A   24256.58603084 -.00000112  00000+0  00000+0 0  9997
2 29494   0.7502  88.6128 0003061  86.1953 287.0525  1.00271752 44944
OPTUS D1                
1 29495U 06043B   24256.54632819 -.00000182  00000+0  00000+0 0  9999
2 29495   1.3645  87.6913 0003677  80.0214 172.9844  1.00270589 65673
BADR-4                  
1 29526U 06051A   24256.23214260  .00000148  00000+0  00000+0 0  9996
2 29526   0.3344  84.6927 0003704 141.1114 235.7556  1.00275259 44825
WILDBLUE-1              
1 29643U 06054A   24256.56973906 -.00000048  00000+0  00000+0 0  9994
2 29643   1.1321  88.9935 0001881  77.3567 279.6428  1.00271382 65103
SKYNET 5A               
1 30794U 07007B   24256.47271656 -.00000269  00000+0  00000+0 0  9990
2 30794   3.6510  81.4563 0003601 106.1183  69.7557  1.00269036 64250
ANIK F3                 
1 31102U 07009A   24256.56240039  .00000001  00000+0  00000+0 0  9990
2 31102   0.0159 148.5388 0001847  14.7182 272.5507  1.00271107 40117
ASTRA 1L                
1 31306U 07016A   24255.22930542  .00000125  00000+0  00000+0 0  9998
2 31306   0.0741 311.1032 0003030 269.9641 231.4320  1.00270441 38534
GALAXY 17 (G-17)        
1 31307U 07016B   24256.35466358 -.00000204  00000+0  00000+0 0  9992
2 31307   1.3314  88.1778 0003829  99.8321 206.5267  1.00272382 63351
ZHONGXING-6B            
1 31800U 07031A   24256.60091045 -.00000360  00000+0  00000+0 0  9995
2 31800   0.7322  89.9074 0003516  92.1468 141.7069  1.00272426 62987
DIRECTV 10              
1 31862U 07032A   24256.36548792 -.00000101  00000+0  00000+0 0  9996
2 31862   0.0413 332.5928 0000446 178.8051 229.2522  1.00271984 39149
BSAT-3A                 
1 32019U 07036B   24256.59823638 -.00000349  00000+0  00000+0 0  9999
2 32019   0.0645 249.8717 0004218 312.9148 114.5157  1.00270075 44096
OPTUS D2                
1 32252U 07044A   24256.60298242 -.00000108  00000+0  00000+0 0  9999
2 32252   0.4009  90.5882 0004402  96.2343 182.4780  1.00271917 62127
INTELSAT 11 (IS-11)     
1 32253U 07044B   24256.21841547 -.00000266  00000+0  00000+0 0  9994
2 32253   1.8825  86.6620 0002715  94.3719 206.3257  1.00272614 62047
WGS F1 (USA 195)        
1 32258U 07046A   24256.24441775 -.00000265  00000+0  00000+0 0  9992
2 32258   0.1051  94.6566 0000993  45.6529 256.9206  1.00272640 45895
SKYNET 5B               
1 32294U 07056B   24256.31264515  .00000143  00000+0  00000+0 0  9990
2 32294   3.6051  81.1090 0003676  94.1855 314.1844  1.00274650 61759
ASTRA 4A                
1 32299U 07057A   24256.37063316  .00000035  00000+0  00000+0 0  9998
2 32299   0.0458 300.1610 0003000 231.3459 318.6122  1.00273414 45201
HORIZONS-2              
1 32388U 07063B   24256.34354944 -.00000251  00000+0  00000+0 0  9992
2 32388   0.9310  88.5843 0001966  79.0645 234.0794  1.00273383 61360
THURAYA-3               
1 32404U 08001A   24256.37757765 -.00000299  00000+0  00000+0 0  9997
2 32404   4.9689  33.1000 0002237 129.8526  63.3593  1.00273052 61045
THOR 5                  
1 32487U 08006A   24255.65462619 -.00000005  00000+0  00000+0 0  9999
2 32487   0.0404 254.7057 0002430 269.8686  61.4945  1.00271904 60861
AMC-14                  
1 32708U 08011A   24256.03452368  .00000078  00000+0  00000+0 0  9993
2 32708  23.2035  28.2518 0034248   2.0294 351.1614  1.00272782 61716
DIRECTV 11              
1 32729U 08013A   24256.57910464 -.00000125  00000+0  00000+0 0  9997
2 32729   0.0316  13.1930 0000365 131.0321 317.1628  1.00271945 60493
ICO G1                  
1 32763U 08016A   24255.42175925 -.00000166  00000+0  00000+0 0  9991
2 32763   5.0360  35.5604 0002231 147.0296 227.3166  1.00271381 60092
VINASAT-1               
1 32767U 08018A   24255.98730007 -.00000326  00000+0  00000+0 0  9994
2 32767   0.0490 296.7770 0002077 251.4702 290.6178  1.00270885 60140
STAR ONE C2             
1 32768U 08018B   24256.21398457 -.00000274  00000+0  00000+0 0  9993
2 32768   0.0464 326.4828 0002760 202.1014 195.1705  1.00271691 60203
AMOS-3                  
1 32794U 08022A   24256.40743843 -.00000033  00000+0  00000+0 0  9994
2 32794   0.0174 225.3856 0002110 302.9014 326.1525  1.00271766 75896
GALAXY 18 (G-18)        
1 32951U 08024A   24256.55857032  .00000027  00000+0  00000+0 0  9995
2 32951   0.0150 208.9485 0003098 314.6530 266.5265  1.00272369 39404
ZHONGXING-9             
1 33051U 08028A   24256.56854861 -.00000246  00000+0  00000+0 0  9993
2 33051   0.0246 227.3644 0004436 313.2177 108.3696  1.00269801 59593
SKYNET 5C               
1 33055U 08030A   24256.41299557 -.00000137  00000+0  00000+0 0  9998
2 33055   2.1262  84.4401 0004641 103.6773 294.6931  1.00271723 59511
TURKSAT 3A              
1 33056U 08030B   24256.24632628  .00000148  00000+0  00000+0 0  9991
2 33056   0.0320 123.4817 0005129  29.3321 329.5930  1.00271750 45910
INTELSAT 25 (IS-25)     
1 33153U 08034A   24256.22067437 -.00000221  00000+0  00000+0 0  9994
2 33153   1.0381  88.2646 0003044  86.4137 224.9860  1.00270629 59242
